{"type": "FeatureCollection", "features": [ {"type": "Feature", "properties": {"norad_id": 67066, "name": "HULIANWANG DIGUI-126", "group": "last-30-days", "lat": 44.532986684503776, "lon": 37.818979093148165, "alt_km": 805.7758093995735, "timestamp": "2025-12-19T20:42:58.816391+00:00", "meta": {"OBJECT_NAME": "HULIANWANG DIGUI-126", "OBJECT_ID": "2025-295H", "EPOCH": "2025-12-19T06:57:08.510112", "MEAN_MOTION": 14.26096542, "ECCENTRICITY": 0.00114375, "INCLINATION": 50.0014, "RA_OF_ASC_NODE": 344.5512, "ARG_OF_PERICENTER": 273.2525, "MEAN_ANOMALY": 86.708, "EPHEMERIS_TYPE": 0, "CLASSIFICATION_TYPE": "U", "NORAD_CAT_ID": 67066, "ELEMENT_SET_NO": 999, "REV_AT_EPOCH": 105, "BSTAR": 0.00011915752, "MEAN_MOTION_DOT": 1.27e-06, "MEAN_MOTION_DDOT": 0}, "tle": {"line1": "1 67066U 25295H   25353.28968183  .00000127  00000+0  11916-3 0  9991", "line2": "2 67066  50.0014 344.5512 0011437 273.2525  86.7080 14.26096542  1057"}}, "geometry": {"type": "Point", "coordinates": [37.818979093148165, 44.532986684503776]}}, {"type": "Feature", "properties": {"norad_id": 67067, "name": "HULIANWANG DIGUI-127", "group": "last-30-days", "lat": 46.09681200516937, "lon": 42.84827365836502, "alt_km": 804.6696912032476, "timestamp": "2025-12-19T20:42:58.816402+00:00", "meta": {"OBJECT_NAME": "HULIANWANG DIGUI-127", "OBJECT_ID": "2025-295J", "EPOCH": "2025-12-19T00:12:34.067232", "MEAN_MOTION": 14.26249922, "ECCENTRICITY": 0.00108646, "INCLINATION": 50.0053, "RA_OF_ASC_NODE": 345.7393, "ARG_OF_PERICENTER": 276.2667, "MEAN_ANOMALY": 83.701, "EPHEMERIS_TYPE": 0, "CLASSIFICATION_TYPE": "U", "NORAD_CAT_ID": 67067, "ELEMENT_SET_NO": 999, "REV_AT_EPOCH": 101, "BSTAR": -0.00028493863, "MEAN_MOTION_DOT": -8.49e-06, "MEAN_MOTION_DDOT": 0}, "tle": {"line1": "1 67067U 25295J   25353.00872763 -.00000849  00000+0 -28494-3 0  9992", "line2": "2 67067  50.0053 345.7393 0010864 276.2667  83.7010 14.26249922  1012"}}, "geometry": {"type": "Point", "coordinates": [42.84827365836502, 46.09681200516937]}}, {"type": "Feature", "properties": {"norad_id": 67069, "name": "XIWANG-5 02", "group": "last-30-days", "lat": -41.26835982977412, "lon": -25.202238221561565, "alt_km": 528.1622269652498, "timestamp": "2025-12-19T20:42:58.816412+00:00", "meta": {"OBJECT_NAME": "XIWANG-5 02", "OBJECT_ID": "2025-296A", "EPOCH": "2025-12-19T06:52:37.183872", "MEAN_MOTION": 15.16798782, "ECCENTRICITY": 0.0014493, "INCLINATION": 41.3526, "RA_OF_ASC_NODE": 64.228, "ARG_OF_PERICENTER": 71.5853, "MEAN_ANOMALY": 288.6543, "EPHEMERIS_TYPE": 0, "CLASSIFICATION_TYPE": "U", "NORAD_CAT_ID": 67069, "ELEMENT_SET_NO": 999, "REV_AT_EPOCH": 95, "BSTAR": 0.00045101918, "MEAN_MOTION_DOT": 8.862e-05, "MEAN_MOTION_DDOT": 0}, "tle": {"line1": "1 67069U 25296A   25353.28654148  .00008862  00000+0  45102-3 0  9996", "line2": "2 67069  41.3526  64.2280 0014493  71.5853 288.6543 15.16798782   957"}}, "geometry": {"type": "Point", "coordinates": [-25.202238221561565, -41.26835982977412]}}, {"type": "Feature", "properties": {"norad_id": 67070, "name": "DEAR-5", "group": "last-30-days", "lat": -40.94548355911081, "lon": -19.591261824713754, "alt_km": 528.7667950911828, "timestamp": "2025-12-19T20:42:58.816422+00:00", "meta": {"OBJECT_NAME": "DEAR-5", "OBJECT_ID": "2025-296B", "EPOCH": "2025-12-19T02:07:06.725856", "MEAN_MOTION": 15.16883786, "ECCENTRICITY": 0.0016126, "INCLINATION": 41.3555, "RA_OF_ASC_NODE": 65.351, "ARG_OF_PERICENTER": 71.2367, "MEAN_ANOMALY": 289.0203, "EPHEMERIS_TYPE": 0, "CLASSIFICATION_TYPE": "U", "NORAD_CAT_ID": 67070, "ELEMENT_SET_NO": 999, "REV_AT_EPOCH": 91, "BSTAR": 0.00027263475, "MEAN_MOTION_DOT": 5.288e-05, "MEAN_MOTION_DDOT": 0}, "tle": {"line1": "1 67070U 25296B   25353.08827229  .00005288  00000+0  27263-3 0  9995", "line2": "2 67070  41.3555  65.3510 0016126  71.2367 289.0203 15.16883786   914"}}, "geometry": {"type": "Point", "coordinates": [-19.591261824713754, -40.94548355911081]}}, {"type": "Feature", "properties": {"norad_id": 67071, "name": "KZ-11 R/B", "group": "last-30-days", "lat": 22.29626986536092, "lon": -144.40836648355864, "alt_km": 891.7385795380496, "timestamp": "2025-12-19T20:42:58.816432+00:00", "meta": {"OBJECT_NAME": "KZ-11 R/B", "OBJECT_ID": "2025-296C", "EPOCH": "2025-12-18T15:12:04.764672", "MEAN_MOTION": 14.86885548, "ECCENTRICITY": 0.06788234, "INCLINATION": 41.3315, "RA_OF_ASC_NODE": 70.2352, "ARG_OF_PERICENTER": 355.0968, "MEAN_ANOMALY": 4.3428, "EPHEMERIS_TYPE": 0, "CLASSIFICATION_TYPE": "U", "NORAD_CAT_ID": 67071, "ELEMENT_SET_NO": 999, "REV_AT_EPOCH": 82, "BSTAR": 0.00050423781, "MEAN_MOTION_DOT": 0.05455497, "MEAN_MOTION_DDOT": 6.017039e-06}, "tle": {"line1": "1 67071U 25296C   25352.63338848  .05455497  60170-5  50424-3 0  9991", "line2": "2 67071  41.3315  70.2352 0678823 355.0968   4.3428 14.86885548   827"}}, "geometry": {"type": "Point", "coordinates": [-144.40836648355864, 22.29626986536092]}}, {"type": "Feature", "properties": {"norad_id": 67072, "name": "ELECTRON R/B", "group": "last-30-days", "lat": 7.001850829272082, "lon": 140.92856464494713, "alt_km": 417.7897017568839, "timestamp": "2025-12-19T20:42:58.816443+00:00", "meta": {"OBJECT_NAME": "ELECTRON R/B", "OBJECT_ID": "2025-297A", "EPOCH": "2025-12-19T07:05:39.225696", "MEAN_MOTION": 15.89000154, "ECCENTRICITY": 0.01977828, "INCLINATION": 97.472, "RA_OF_ASC_NODE": 141.2271, "ARG_OF_PERICENTER": 208.8024, "MEAN_ANOMALY": 150.2217, "EPHEMERIS_TYPE": 0, "CLASSIFICATION_TYPE": "U", "NORAD_CAT_ID": 67072, "ELEMENT_SET_NO": 999, "REV_AT_EPOCH": 82, "BSTAR": 0.0013443304, "MEAN_MOTION_DOT": 0.02418712, "MEAN_MOTION_DDOT": 2.217586e-06}, "tle": {"line1": "1 67072U 25297A   25353.29559289  .02418712  22176-5  13443-2 0  9999", "line2": "2 67072  97.4720 141.2271 0197782 208.8024 150.2217 15.89000154   820"}}, "geometry": {"type": "Point", "coordinates": [140.92856464494713, 7.001850829272082]}}, {"type": "Feature", "properties": {"norad_id": 67073, "name": "RAISE-4", "group": "last-30-days", "lat": -33.460667891852985, "lon": 146.20541560005606, "alt_km": 544.2967544860494, "timestamp": "2025-12-19T20:42:58.816453+00:00", "meta": {"OBJECT_NAME": "RAISE-4", "OBJECT_ID": "2025-297B", "EPOCH": "2025-12-19T06:31:31.025568", "MEAN_MOTION": 15.07177511, "ECCENTRICITY": 0.00114177, "INCLINATION": 97.4853, "RA_OF_ASC_NODE": 140.6452, "ARG_OF_PERICENTER": 296.9674, "MEAN_ANOMALY": 63.0387, "EPHEMERIS_TYPE": 0, "CLASSIFICATION_TYPE": "U", "NORAD_CAT_ID": 67073, "ELEMENT_SET_NO": 999, "REV_AT_EPOCH": 77, "BSTAR": 0.00022353741, "MEAN_MOTION_DOT": 3.306e-05, "MEAN_MOTION_DDOT": 0}, "tle": {"line1": "1 67073U 25297B   25353.27188687  .00003306  00000+0  22354-3 0  9993", "line2": "2 67073  97.4853 140.6452 0011417 296.9674  63.0387 15.07177511   776"}}, "geometry": {"type": "Point", "coordinates": [146.20541560005606, -33.460667891852985]}}, {"type": "Feature", "properties": {"norad_id": 67074, "name": "ELECTRON KICK STAGE R/B", "group": "last-30-days", "lat": -43.35594956929461, "lon": -45.47593113443685, "alt_km": 276.2930527920171, "timestamp": "2025-12-19T20:42:58.816465+00:00", "meta": {"OBJECT_NAME": "ELECTRON KICK STAGE R/B", "OBJECT_ID": "2025-297C", "EPOCH": "2025-12-18T23:41:00.563712", "MEAN_MOTION": 15.55985409, "ECCENTRICITY": 0.02022582, "INCLINATION": 97.4818, "RA_OF_ASC_NODE": 140.7335, "ARG_OF_PERICENTER": 246.792, "MEAN_ANOMALY": 111.1921, "EPHEMERIS_TYPE": 0, "CLASSIFICATION_TYPE": "U", "NORAD_CAT_ID": 67074, "ELEMENT_SET_NO": 999, "REV_AT_EPOCH": 75, "BSTAR": 0.0014322456, "MEAN_MOTION_DOT": 0.00259375, "MEAN_MOTION_DDOT": 1.9664913e-05}, "tle": {"line1": "1 67074U 25297C   25352.98681208  .00259375  19665-4  14322-2 0  9994", "line2": "2 67074  97.4818 140.7335 0202258 246.7920 111.1921 15.55985409   754"}}, "geometry": {"type": "Point", "coordinates": [-45.47593113443685, -43.35594956929461]}}, {"type": "Feature", "properties": {"norad_id": 67131, "name": "ZIYUAN 3-04 (ZY 3-04)", "group": "last-30-days", "lat": 39.20378943542061, "lon": 61.78516565794658, "alt_km": 495.08660227180917, "timestamp": "2025-12-19T20:42:58.816478+00:00", "meta": {"OBJECT_NAME": "ZIYUAN 3-04 (ZY 3-04)", "OBJECT_ID": "2025-300A", "EPOCH": "2025-12-16T05:54:33.890112", "MEAN_MOTION": 15.24627585, "ECCENTRICITY": 0.0011082, "INCLINATION": 97.5012, "RA_OF_ASC_NODE": 64.3338, "ARG_OF_PERICENTER": 268.6179, "MEAN_ANOMALY": 91.3789, "EPHEMERIS_TYPE": 0, "CLASSIFICATION_TYPE": "U", "NORAD_CAT_ID": 67131, "ELEMENT_SET_NO": 999, "REV_AT_EPOCH": 2, "BSTAR": 8.3268042e-05, "MEAN_MOTION_DOT": 1.984e-05, "MEAN_MOTION_DDOT": 0}, "tle": {"line1": "1 67131U 25300A   25350.24622558  .00001984  00000+0  83268-4 0  9999", "line2": "2 67131  97.5012  64.3338 0011082 268.6179  91.3789 15.24627585    26"}}, "geometry": {"type": "Point", "coordinates": [61.78516565794658, 39.20378943542061]}}, {"type": "Feature", "properties": {"norad_id": 67132, "name": "CZ-4B R/B", "group": "last-30-days", "lat": -20.617970563294087, "lon": -114.62533962157154, "alt_km": 494.63740798279196, "timestamp": "2025-12-19T20:42:58.816488+00:00", "meta": {"OBJECT_NAME": "CZ-4B R/B", "OBJECT_ID": "2025-300B", "EPOCH": "2025-12-18T16:13:04.609056", "MEAN_MOTION": 15.63831828, "ECCENTRICITY": 0.01741973, "INCLINATION": 97.5563, "RA_OF_ASC_NODE": 66.966, "ARG_OF_PERICENTER": 9.3582, "MEAN_ANOMALY": 351.0851, "EPHEMERIS_TYPE": 0, "CLASSIFICATION_TYPE": "U", "NORAD_CAT_ID": 67132, "ELEMENT_SET_NO": 999, "REV_AT_EPOCH": 40, "BSTAR": 0.00019566238, "MEAN_MOTION_DOT": 0.00040543, "MEAN_MOTION_DDOT": 2.652968e-06}, "tle": {"line1": "1 67132U 25300B   25352.67574779  .00040543  26530-5  19566-3 0  9995", "line2": "2 67132  97.5563  66.9660 0174197   9.3582 351.0851 15.63831828   407"}}, "geometry": {"type": "Point", "coordinates": [-114.62533962157154, -20.617970563294087]}}]}